COSMOS 2433 (720)       
1 32275U 07052A   25333.95017524 -.00000018  00000+0  00000+0 0  9990
2 32275  65.6901 322.6356 0005629 251.4911 108.4661  2.13103956140810
COSMOS 2432 (719)       
1 32276U 07052B   25334.09543551 -.00000018  00000+0  00000+0 0  9991
2 32276  65.7059 322.7547 0011218 310.9925 104.9080  2.13103086140849
COSMOS 2434 (721)       
1 32393U 07065A   25334.15748115  .00000092  00000+0  00000+0 0  9996
2 32393  64.3146 198.6281 0004304  70.4000 339.2769  2.13101193139534
COSMOS 2436 (723)       
1 32395U 07065C   25334.08590824  .00000091  00000+0  00000+0 0  9991
2 32395  64.3233 198.7006 0017704   8.5569 119.3435  2.13099987139487
COSMOS 2456 (730)       
1 36111U 09070A   25334.14075199 -.00000006  00000+0  00000+0 0  9996
2 36111  64.8931  77.7688 0002708 298.5991 255.2491  2.13103448124188
COSMOS 2457 (733)       
1 36112U 09070B   25334.25142249 -.00000008  00000+0  00000+0 0  9992
2 36112  64.8784  77.6127 0004997 155.2893 252.7227  2.13100815124199
COSMOS 2460 (732)       
1 36402U 10007C   25334.21133527 -.00000019  00000+0  00000+0 0  9993
2 36402  65.5366 321.1968 0002817 269.3859 107.1571  2.13106075122493
COSMOS 2476 (744)       
1 37867U 11064A   25329.75180412  .00000017  00000+0  00000+0 0  9998
2 37867  65.1535  79.7464 0023759 232.8078 102.4501  2.13101389109428
COSMOS 2477 (745)       
1 37868U 11064B   25333.88252424  .00000000  00000+0  00000+0 0  9993
2 37868  65.1619  79.6839 0020945 233.6607 211.3950  2.13102712109517
COSMOS 2475 (743)       
1 37869U 11064C   25331.49510793  .00000016  00000+0  00000+0 0  9992
2 37869  65.1676  79.7846 0025858 247.9398 121.5900  2.13101456109479
COSMOS 2485 (747)       
1 39155U 13019A   25328.31313637  .00000012  00000+0  00000+0 0  9995
2 39155  65.3036  80.4871 0024274 228.0776 131.7167  2.13103115 97916
COSMOS 2492 (754)       
1 39620U 14012A   25330.14878288 -.00000016  00000+0  00000+0 0  9993
2 39620  65.4170 320.8337 0014096 310.0598  49.8317  2.13103222 90914
COSMOS 2500 (755)       
1 40001U 14032A   25334.07523372 -.00000019  00000+0  00000+0 0  9990
2 40001  65.3506 320.4637 0008387 218.9458 141.0093  2.13105939 89211
COSMOS 2501 (702K)      
1 40315U 14075A   25333.86555699  .00000091  00000+0  00000+0 0  9997
2 40315  63.6137 197.2711 0020177 204.8562 155.1342  2.13101314 85609
COSMOS 2514 (751)       
1 41330U 16008A   25333.84951587 -.00000019  00000+0  00000+0 0  9998
2 41330  65.1411 319.8458 0012577 219.7884 140.1346  2.13102651 76373
COSMOS 2522 (752)       
1 42939U 17055A   25331.34164618  .00000066  00000+0  00000+0 0  9992
2 42939  64.0756 198.7536 0006645 227.0793 132.9509  2.13101917 63673
COSMOS 2527 (756)       
1 43508U 18053A   25332.71012380  .00000012  00000+0  00000+0 0  9995
2 43508  65.4651  80.6007 0008576 223.0414 136.8979  2.13102090 58006
COSMOS 2529 (757)       
1 43687U 18086A   25329.05356044  .00000058  00000+0  00000+0 0  9990
2 43687  64.2914 199.4861 0007567 254.9036 105.1045  2.13101982 54932
COSMOS 2534 (758)       
1 44299U 19030A   25334.18957872  .00000091  00000+0  00000+0 0  9993
2 44299  64.3652 199.3159 0009133 283.4728 191.1332  2.13101977 50683
COSMOS 2544 (759)       
1 44850U 19088A   25332.65466679  .00000012  00000+0  00000+0 0  9992
2 44850  65.4525  80.4296 0013559 248.4541 111.4081  2.13101801 46441
COSMOS 2545 (760)       
1 45358U 20018A   25333.78904115 -.00000020  00000+0  00000+0 0  9998
2 45358  64.4773 319.4243 0011943 248.2066 111.6810  2.13102421 44417
COSMOS 2547 (705K)      
1 46805U 20075A   25333.97701096  .00000089  00000+0  00000+0 0  9997
2 46805  64.5957 199.1228 0006332 229.7361 130.2968  2.13099890 39661
COSMOS 2557 (706K)      
1 52984U 22075A   25334.14236465 -.00000022  00000+0  00000+0 0  9995
2 52984  64.4168 321.4948 0013766 276.2653  83.5941  2.13101809 26478
COSMOS 2559 (707K)      
1 54031U 22130A   25333.96150911 -.00000021  00000+0  00000+0 0  9991
2 54031  64.3892 321.5911 0012122 192.8559 167.1302  2.13101296 24445
COSMOS 2564 (761)       
1 54377U 22161A   25333.80577828  .00000087  00000+0  00000+0 0  9992
2 54377  64.7376 199.3286 0008760 206.7904 153.2521  2.13101983 23381
COSMOS 2569 (703K)      
1 57517U 23114A   25333.81921370  .00000000  00000+0  00000+0 0  9991
2 57517  65.1873  79.3502 0010025 286.9985  72.8960  2.13103859 18012
COSMOS 2584 (704K)      
1 63130U 25042A   25330.42095954  .00000018  00000+0  00000+0 0  9994
2 63130  64.9668  79.7019 0007521 212.3772 147.5850  2.13103062  5728
COSMOS 2596 (708K)      
1 65590U 25206B   25334.08977572 -.00000021  00000+0  00000+0 0  9994
2 65590  64.7512 321.9152 0014079 304.6953 108.4937  2.13100321  1664
